[
    {
        "Altitude(m)": 561284.3442274273,
        "Argument of Periapsis(deg)": 0.026491964442854003,
        "Eccentricity": 0.0,
        "Inclination(deg)": 53.0,
        "Latitude(deg)": -26.836432283897306,
        "Longitude(deg)": -60.465817206775135,
        "Mean Anomaly(deg)": -34.17902852968966,
        "RAAN(deg)": 64.96057347411208,
        "Satellite Name": "Starlink Shell 1 303",
        "Satellite Number": 303,
        "Semi-Major Axis(m)": 6931778.249405717,
        "Time(s)": 760
    },
    {
        "Altitude(m)": 561112.1142282741,
        "Argument of Periapsis(deg)": 0.02684054292236524,
        "Eccentricity": 0.0,
        "Inclination(deg)": 53.0,
        "Latitude(deg)": -26.370984230064614,
        "Longitude(deg)": -60.03736632344661,
        "Mean Anomaly(deg)": -33.55219732613295,
        "RAAN(deg)": 64.9600547040346,
        "Satellite Name": "Starlink Shell 1 303",
        "Satellite Number": 303,
        "Semi-Major Axis(m)": 6931778.249405717,
        "Time(s)": 770
    },
    {
        "Altitude(m)": 560940.557204458,
        "Argument of Periapsis(deg)": 0.027189121401876473,
        "Eccentricity": 0.0,
        "Inclination(deg)": 53.0,
        "Latitude(deg)": -25.903963262349723,
        "Longitude(deg)": -59.612652765379245,
        "Mean Anomaly(deg)": -32.925366122576236,
        "RAAN(deg)": 64.95953593395713,
        "Satellite Name": "Starlink Shell 1 303",
        "Satellite Number": 303,
        "Semi-Major Axis(m)": 6931778.249405717,
        "Time(s)": 780
    },
    {
        "Altitude(m)": 560769.7358823768,
        "Argument of Periapsis(deg)": 0.02753769988138771,
        "Eccentricity": 0.0,
        "Inclination(deg)": 53.0,
        "Latitude(deg)": -25.43541231093148,
        "Longitude(deg)": -59.19158275160206,
        "Mean Anomaly(deg)": -32.29853491901953,
        "RAAN(deg)": 64.95901716387965,
        "Satellite Name": "Starlink Shell 1 303",
        "Satellite Number": 303,
        "Semi-Major Axis(m)": 6931778.249405717,
        "Time(s)": 790
    },
    {
        "Altitude(m)": 560599.7125125414,
        "Argument of Periapsis(deg)": 0.02788627836089895,
        "Eccentricity": 0.0,
        "Inclination(deg)": 53.0,
        "Latitude(deg)": -24.96537341798866,
        "Longitude(deg)": -58.77406427884512,
        "Mean Anomaly(deg)": -31.671703715462765,
        "RAAN(deg)": 64.95849839380219,
        "Satellite Name": "Starlink Shell 1 303",
        "Satellite Number": 303,
        "Semi-Major Axis(m)": 6931778.249405717,
        "Time(s)": 800
    },
    {
        "Altitude(m)": 560430.5488416821,
        "Argument of Periapsis(deg)": 0.02823485684041019,
        "Eccentricity": 0.0,
        "Inclination(deg)": 53.0,
        "Latitude(deg)": -24.493887764721833,
        "Longitude(deg)": -58.36000660541764,
        "Mean Anomaly(deg)": -31.044872511906107,
        "RAAN(deg)": 64.95797962372471,
        "Satellite Name": "Starlink Shell 1 303",
        "Satellite Number": 303,
        "Semi-Major Axis(m)": 6931778.249405717,
        "Time(s)": 810
    },
    {
        "Altitude(m)": 560262.3060850457,
        "Argument of Periapsis(deg)": 0.028583435319921423,
        "Eccentricity": 0.0,
        "Inclination(deg)": 53.0,
        "Latitude(deg)": -24.020995697859707,
        "Longitude(deg)": -57.94931973334597,
        "Mean Anomaly(deg)": -30.418041308349355,
        "RAAN(deg)": 64.95746085364723,
        "Satellite Name": "Starlink Shell 1 303",
        "Satellite Number": 303,
        "Semi-Major Axis(m)": 6931778.249405717,
        "Time(s)": 820
    },
    {
        "Altitude(m)": 560095.0448989813,
        "Argument of Periapsis(deg)": 0.028932013799432665,
        "Eccentricity": 0.0,
        "Inclination(deg)": 53.0,
        "Latitude(deg)": -23.54673675564919,
        "Longitude(deg)": -57.54191540180464,
        "Mean Anomaly(deg)": -29.791210104792643,
        "RAAN(deg)": 64.95694208356977,
        "Satellite Name": "Starlink Shell 1 303",
        "Satellite Number": 303,
        "Semi-Major Axis(m)": 6931778.249405717,
        "Time(s)": 830
    },
    {
        "Altitude(m)": 559928.8253537519,
        "Argument of Periapsis(deg)": 0.029280592278943897,
        "Eccentricity": 0.0,
        "Inclination(deg)": 53.0,
        "Latitude(deg)": -23.071149693324283,
        "Longitude(deg)": -57.13770656623804,
        "Mean Anomaly(deg)": -29.164378901235978,
        "RAAN(deg)": 64.95642331349228,
        "Satellite Name": "Starlink Shell 1 303",
        "Satellite Number": 303,
        "Semi-Major Axis(m)": 6931778.249405717,
        "Time(s)": 840
    },
    {
        "Altitude(m)": 559763.7069066536,
        "Argument of Periapsis(deg)": 0.029629170758455132,
        "Eccentricity": 0.0,
        "Inclination(deg)": 53.0,
        "Latitude(deg)": -22.59427250805663,
        "Longitude(deg)": -56.736606876186116,
        "Mean Anomaly(deg)": -28.537547697679177,
        "RAAN(deg)": 64.95590454341482,
        "Satellite Name": "Starlink Shell 1 303",
        "Satellite Number": 303,
        "Semi-Major Axis(m)": 6931778.249405717,
        "Time(s)": 850
    },
    {
        "Altitude(m)": 559599.7483753682,
        "Argument of Periapsis(deg)": 0.02997774923796637,
        "Eccentricity": 0.0,
        "Inclination(deg)": 53.0,
        "Latitude(deg)": -22.116142463391338,
        "Longitude(deg)": -56.338531832912295,
        "Mean Anomaly(deg)": -27.910716494122507,
        "RAAN(deg)": 64.95538577333734,
        "Satellite Name": "Starlink Shell 1 303",
        "Satellite Number": 303,
        "Semi-Major Axis(m)": 6931778.249405717,
        "Time(s)": 860
    },
    {
        "Altitude(m)": 559437.0079116946,
        "Argument of Periapsis(deg)": 0.030326327717477602,
        "Eccentricity": 0.0,
        "Inclination(deg)": 53.0,
        "Latitude(deg)": -21.636796113166497,
        "Longitude(deg)": -55.943397424521685,
        "Mean Anomaly(deg)": -27.2838852905658,
        "RAAN(deg)": 64.95486700325986,
        "Satellite Name": "Starlink Shell 1 303",
        "Satellite Number": 303,
        "Semi-Major Axis(m)": 6931778.249405717,
        "Time(s)": 870
    },
    {
        "Altitude(m)": 559275.5429755122,
        "Argument of Periapsis(deg)": 0.030674906196988847,
        "Eccentricity": 0.0,
        "Inclination(deg)": 53.0,
        "Latitude(deg)": -21.15626932492752,
        "Longitude(deg)": -55.55112128159606,
        "Mean Anomaly(deg)": -26.657054087009048,
        "RAAN(deg)": 64.9543482331824,
        "Satellite Name": "Starlink Shell 1 303",
        "Satellite Number": 303,
        "Semi-Major Axis(m)": 6931778.249405717,
        "Time(s)": 880
    },
    {
        "Altitude(m)": 559115.41030914,
        "Argument of Periapsis(deg)": 0.031023484676500086,
        "Eccentricity": 0.0,
        "Inclination(deg)": 53.0,
        "Latitude(deg)": -20.674597302836812,
        "Longitude(deg)": -55.161622151015514,
        "Mean Anomaly(deg)": -26.030222883452385,
        "RAAN(deg)": 64.95382946310492,
        "Satellite Name": "Starlink Shell 1 303",
        "Satellite Number": 303,
        "Semi-Major Axis(m)": 6931778.249405717,
        "Time(s)": 890
    },
    {
        "Altitude(m)": 558956.665911993,
        "Argument of Periapsis(deg)": 0.03137206315601132,
        "Eccentricity": 0.0,
        "Inclination(deg)": 53.0,
        "Latitude(deg)": -20.191814610087185,
        "Longitude(deg)": -54.774819369032045,
        "Mean Anomaly(deg)": -25.40339167989567,
        "RAAN(deg)": 64.95331069302745,
        "Satellite Name": "Starlink Shell 1 303",
        "Satellite Number": 303,
        "Semi-Major Axis(m)": 6931778.249405717,
        "Time(s)": 900
    },
    {
        "Altitude(m)": 558799.3650156208,
        "Argument of Periapsis(deg)": 0.03172064163552255,
        "Eccentricity": 0.0,
        "Inclination(deg)": 53.0,
        "Latitude(deg)": -19.707955190828716,
        "Longitude(deg)": -54.39063384655642,
        "Mean Anomaly(deg)": -24.77656047633892,
        "RAAN(deg)": 64.95279192294998,
        "Satellite Name": "Starlink Shell 1 303",
        "Satellite Number": 303,
        "Semi-Major Axis(m)": 6931778.249405717,
        "Time(s)": 910
    },
    {
        "Altitude(m)": 558643.5620590767,
        "Argument of Periapsis(deg)": 0.0320692201150338,
        "Eccentricity": 0.0,
        "Inclination(deg)": 53.0,
        "Latitude(deg)": -19.22305239161391,
        "Longitude(deg)": -54.008987540987285,
        "Mean Anomaly(deg)": -24.149729272782203,
        "RAAN(deg)": 64.95227315287251,
        "Satellite Name": "Starlink Shell 1 303",
        "Satellite Number": 303,
        "Semi-Major Axis(m)": 6931778.249405717,
        "Time(s)": 920
    },
    {
        "Altitude(m)": 558489.3106647194,
        "Argument of Periapsis(deg)": 0.032417798594545036,
        "Eccentricity": 0.0,
        "Inclination(deg)": 53.0,
        "Latitude(deg)": -18.73713898237153,
        "Longitude(deg)": -53.629802927529965,
        "Mean Anomaly(deg)": -23.522898069225548,
        "RAAN(deg)": 64.95175438279503,
        "Satellite Name": "Starlink Shell 1 303",
        "Satellite Number": 303,
        "Semi-Major Axis(m)": 6931778.249405717,
        "Time(s)": 930
    },
    {
        "Altitude(m)": 558336.6636143548,
        "Argument of Periapsis(deg)": 0.03276637707405627,
        "Eccentricity": 0.0,
        "Inclination(deg)": 53.0,
        "Latitude(deg)": -18.250247176920364,
        "Longitude(deg)": -53.25300398294614,
        "Mean Anomaly(deg)": -22.896066865668793,
        "RAAN(deg)": 64.95123561271757,
        "Satellite Name": "Starlink Shell 1 303",
        "Satellite Number": 303,
        "Semi-Major Axis(m)": 6931778.249405717,
        "Time(s)": 940
    }
]